{
  "norad_id": 59103,
  "name": "ICEYE-X36",
  "history": [
    {
      "epoch": "2026-03-28T21:13:30.969408",
      "apogee_km": 551.5943359376934,
      "perigee_km": 544.2250222711273,
      "latitude_deg": 58.88255254738758,
      "longitude_deg": 175.20107712014578,
      "semi_major_axis_km": 6926.04667910441,
      "eccentricity": 0.000532,
      "inclination_deg": 97.8227,
      "raan_deg": 224.6372,
      "arg_perigee_deg": 220.622,
      "mean_anomaly_deg": 139.461,
      "mean_motion_rev_day": 15.06172246
    }
  ]
}